start=new Date('2021-11-09T00:00:00.000Z').valueOf();
sats=[{"MEAN_MOTION_DDOT":"0.0000000000000","CENTER_NAME":"EARTH","MEAN_ELEMENT_THEORY":"SGP4","GP_ID":"189300945","OBJECT_ID":"2020-035BC","REV_AT_EPOCH":"8066","MEAN_MOTION":"15.06375589","ARG_OF_PERICENTER":"68.2580","REF_FRAME":"TEME","SEMIMAJOR_AXIS":"6925.423","TIME_SYSTEM":"UTC","NORAD_CAT_ID":"45707","EPOCH":"2021-11-08T09:15:14.928480","COUNTRY_CODE":"US","PERIAPSIS":"546.160","APOAPSIS":"548.417","INCLINATION":"53.0545","EPHEMERIS_TYPE":"0","TLE_LINE2":"2 45707  53.0545 299.8628 0001629  68.2580 291.8582 15.06375589 80662","PERIOD":"95.594","OBJECT_NAME":"STARLINK-1412","RA_OF_ASC_NODE":"299.8628","RCS_SIZE":"LARGE","SITE":"AFETR","BSTAR":"0.00015858000000","MEAN_MOTION_DOT":"0.00002080","ECCENTRICITY":"0.00016290","FILE":"3209620","DECAY_DATE":null,"OBJECT_TYPE":"PAYLOAD","ELEMENT_SET_NO":"999","TLE_LINE1":"1 45707U 20035BC  21312.38558945  .00002080  00000-0  15858-3 0  9999","LAUNCH_DATE":"2020-06-04","MEAN_ANOMALY":"291.8582","CLASSIFICATION_TYPE":"U"},{"PERIOD":"95.593","OBJECT_NAME":"STARLINK-1418","TLE_LINE2":"2 45708  53.0531 298.4950 0001549  70.5402 289.5754 15.06383473 80713","RCS_SIZE":"LARGE","RA_OF_ASC_NODE":"298.4950","COUNTRY_CODE":"US","PERIAPSIS":"546.191","EPOCH":"2021-11-08T16:35:48.693984","TIME_SYSTEM":"UTC","NORAD_CAT_ID":"45708","APOAPSIS":"548.337","EPHEMERIS_TYPE":"0","INCLINATION":"53.0531","REF_FRAME":"TEME","SEMIMAJOR_AXIS":"6925.399","OBJECT_ID":"2020-035BD","CENTER_NAME":"EARTH","MEAN_MOTION_DDOT":"0.0000000000000","GP_ID":"189301697","MEAN_ELEMENT_THEORY":"SGP4","REV_AT_EPOCH":"8071","MEAN_MOTION":"15.06383473","ARG_OF_PERICENTER":"70.5402","MEAN_ANOMALY":"289.5754","CLASSIFICATION_TYPE":"U","ELEMENT_SET_NO":"999","LAUNCH_DATE":"2020-06-04","TLE_LINE1":"1 45708U 20035BD  21312.69153581  .00004524  00000-0  32256-3 0  9997","DECAY_DATE":null,"OBJECT_TYPE":"PAYLOAD","SITE":"AFETR","BSTAR":"0.00032256000000","FILE":"3209620","ECCENTRICITY":"0.00015490","MEAN_MOTION_DOT":"0.00004524"},{"PERIOD":"95.594","OBJECT_NAME":"STARLINK-1421","TLE_LINE2":"2 45709  53.0536 298.6133 0001494  72.8339 287.2814 15.06377937 80661","RCS_SIZE":"LARGE","RA_OF_ASC_NODE":"298.6133","COUNTRY_CODE":"US","PERIAPSIS":"546.247","EPOCH":"2021-11-08T15:53:20.228352","TIME_SYSTEM":"UTC","NORAD_CAT_ID":"45709","APOAPSIS":"548.316","INCLINATION":"53.0536","EPHEMERIS_TYPE":"0","REF_FRAME":"TEME","SEMIMAJOR_AXIS":"6925.416","OBJECT_ID":"2020-035BE","MEAN_MOTION_DDOT":"0.0000000000000","CENTER_NAME":"EARTH","GP_ID":"189301448","MEAN_ELEMENT_THEORY":"SGP4","MEAN_MOTION":"15.06377937","ARG_OF_PERICENTER":"72.8339","REV_AT_EPOCH":"8066","MEAN_ANOMALY":"287.2814","CLASSIFICATION_TYPE":"U","ELEMENT_SET_NO":"999","LAUNCH_DATE":"2020-06-04","TLE_LINE1":"1 45709U 20035BE  21312.66203968  .00003080  00000-0  22571-3 0  9995","DECAY_DATE":null,"OBJECT_TYPE":"PAYLOAD","BSTAR":"0.00022571000000","SITE":"AFETR","FILE":"3209620","ECCENTRICITY":"0.00014940","MEAN_MOTION_DOT":"0.00003080"},{"OBJECT_TYPE":"PAYLOAD","DECAY_DATE":null,"ECCENTRICITY":"0.00015140","FILE":"3209620","MEAN_MOTION_DOT":"0.00001940","SITE":"AFETR","BSTAR":"0.00014916000000","CLASSIFICATION_TYPE":"U","MEAN_ANOMALY":"285.9738","LAUNCH_DATE":"2020-06-04","TLE_LINE1":"1 45710U 20035BF  21312.65835532  .00001940  00000-0  14916-3 0  9991","ELEMENT_SET_NO":"999","SEMIMAJOR_AXIS":"6925.411","REF_FRAME":"TEME","MEAN_MOTION":"15.06379671","ARG_OF_PERICENTER":"74.1417","REV_AT_EPOCH":"8070","OBJECT_ID":"2020-035BF","MEAN_MOTION_DDOT":"0.0000000000000","CENTER_NAME":"EARTH","GP_ID":"189300196","MEAN_ELEMENT_THEORY":"SGP4","RCS_SIZE":"LARGE","RA_OF_ASC_NODE":"298.6435","PERIOD":"95.593","OBJECT_NAME":"STARLINK-1423","TLE_LINE2":"2 45710  53.0536 298.6435 0001514  74.1417 285.9738 15.06379671 80705","APOAPSIS":"548.324","INCLINATION":"53.0536","EPHEMERIS_TYPE":"0","COUNTRY_CODE":"US","PERIAPSIS":"546.227","TIME_SYSTEM":"UTC","NORAD_CAT_ID":"45710","EPOCH":"2021-11-08T15:48:01.899648"},{"TLE_LINE1":"1 45711U 20035BG  21312.70626859  .00005604  00000-0  39491-3 0  9994","LAUNCH_DATE":"2020-06-04","ELEMENT_SET_NO":"999","CLASSIFICATION_TYPE":"U","MEAN_ANOMALY":"285.8028","MEAN_MOTION_DOT":"0.00005604","FILE":"3209620","ECCENTRICITY":"0.00014600","SITE":"AFETR","BSTAR":"0.00039491000000","OBJECT_TYPE":"PAYLOAD","DECAY_DATE":null,"EPHEMERIS_TYPE":"0","INCLINATION":"53.0536","APOAPSIS":"548.259","TIME_SYSTEM":"UTC","NORAD_CAT_ID":"45711","EPOCH":"2021-11-08T16:57:01.606176","PERIAPSIS":"546.237","COUNTRY_CODE":"US","RA_OF_ASC_NODE":"298.4296","RCS_SIZE":"LARGE","TLE_LINE2":"2 45711  53.0536 298.4296 0001460  74.3122 285.8028 15.06388814 80704","OBJECT_NAME":"STARLINK-1433","PERIOD":"95.593","REV_AT_EPOCH":"8070","MEAN_MOTION":"15.06388814","ARG_OF_PERICENTER":"74.3122","MEAN_ELEMENT_THEORY":"SGP4","GP_ID":"189300446","MEAN_MOTION_DDOT":"0.0000000000000","CENTER_NAME":"EARTH","OBJECT_ID":"2020-035BG","SEMIMAJOR_AXIS":"6925.383","REF_FRAME":"TEME"},{"LAUNCH_DATE":"2020-06-04","TLE_LINE1":"1 45712U 20035BH  21312.70258270  .00006928  00000-0  48361-3 0  9999","ELEMENT_SET_NO":"999","CLASSIFICATION_TYPE":"U","MEAN_ANOMALY":"288.2989","ECCENTRICITY":"0.00016310","FILE":"3209620","MEAN_MOTION_DOT":"0.00006928","SITE":"AFETR","BSTAR":"0.00048361000000","OBJECT_TYPE":"PAYLOAD","DECAY_DATE":null,"INCLINATION":"53.0540","EPHEMERIS_TYPE":"0","APOAPSIS":"548.361","PERIAPSIS":"546.102","COUNTRY_CODE":"US","NORAD_CAT_ID":"45712","TIME_SYSTEM":"UTC","EPOCH":"2021-11-08T16:51:43.145280","RCS_SIZE":"LARGE","RA_OF_ASC_NODE":"298.4418","OBJECT_NAME":"STARLINK-1434","PERIOD":"95.593","TLE_LINE2":"2 45712  53.0540 298.4418 0001631  71.8177 288.2989 15.06394298 80715","REV_AT_EPOCH":"8071","MEAN_MOTION":"15.06394298","ARG_OF_PERICENTER":"71.8177","OBJECT_ID":"2020-035BH","GP_ID":"189301198","MEAN_ELEMENT_THEORY":"SGP4","CENTER_NAME":"EARTH","MEAN_MOTION_DDOT":"0.0000000000000","SEMIMAJOR_AXIS":"6925.366","REF_FRAME":"TEME"},{"TLE_LINE1":"1 45713U 20035BJ  21312.72284897  .00005962  00000-0  41884-3 0  9996","LAUNCH_DATE":"2020-06-04","ELEMENT_SET_NO":"999","CLASSIFICATION_TYPE":"U","MEAN_ANOMALY":"280.1039","MEAN_MOTION_DOT":"0.00005962","FILE":"3209620","ECCENTRICITY":"0.00014090","BSTAR":"0.00041884000000","SITE":"AFETR","OBJECT_TYPE":"PAYLOAD","DECAY_DATE":null,"EPHEMERIS_TYPE":"0","INCLINATION":"53.0532","APOAPSIS":"548.207","EPOCH":"2021-11-08T17:20:54.151008","TIME_SYSTEM":"UTC","NORAD_CAT_ID":"45713","PERIAPSIS":"546.255","COUNTRY_CODE":"US","RA_OF_ASC_NODE":"318.3551","RCS_SIZE":"LARGE","TLE_LINE2":"2 45713  53.0532 318.3551 0001409  80.0109 280.1039 15.06394231 80429","OBJECT_NAME":"STARLINK-1436","PERIOD":"95.593","ARG_OF_PERICENTER":"80.0109","REV_AT_EPOCH":"8042","MEAN_MOTION":"15.06394231","GP_ID":"189301948","MEAN_ELEMENT_THEORY":"SGP4","MEAN_MOTION_DDOT":"0.0000000000000","CENTER_NAME":"EARTH","OBJECT_ID":"2020-035BJ","SEMIMAJOR_AXIS":"6925.366","REF_FRAME":"TEME"},{"CLASSIFICATION_TYPE":"U","MEAN_ANOMALY":"293.7984","LAUNCH_DATE":"2020-06-04","TLE_LINE1":"1 45714U 20035BK  21312.38189801  .00014474  00000-0  98837-3 0  9996","ELEMENT_SET_NO":"999","OBJECT_TYPE":"PAYLOAD","DECAY_DATE":null,"FILE":"3209238","ECCENTRICITY":"0.00013900","MEAN_MOTION_DOT":"0.00014474","SITE":"AFETR","BSTAR":"0.00098837000000","RCS_SIZE":"LARGE","RA_OF_ASC_NODE":"299.8863","OBJECT_NAME":"STARLINK-1437","PERIOD":"95.592","TLE_LINE2":"2 45714  53.0535 299.8863 0001390  66.3150 293.7984 15.06408773 80666","EPHEMERIS_TYPE":"0","INCLINATION":"53.0535","APOAPSIS":"548.149","PERIAPSIS":"546.224","COUNTRY_CODE":"US","NORAD_CAT_ID":"45714","TIME_SYSTEM":"UTC","EPOCH":"2021-11-08T09:09:55.988064","SEMIMAJOR_AXIS":"6925.322","REF_FRAME":"TEME","ARG_OF_PERICENTER":"66.3150","MEAN_MOTION":"15.06408773","REV_AT_EPOCH":"8066","OBJECT_ID":"2020-035BK","MEAN_ELEMENT_THEORY":"SGP4","GP_ID":"189269711","CENTER_NAME":"EARTH","MEAN_MOTION_DDOT":"0.0000000000000"},{"OBJECT_TYPE":"PAYLOAD","DECAY_DATE":null,"MEAN_MOTION_DOT":"0.00077471","FILE":"3209238","ECCENTRICITY":"0.00042510","SITE":"AFETR","BSTAR":"0.00065904000000","CLASSIFICATION_TYPE":"U","MEAN_ANOMALY":"333.5268","TLE_LINE1":"1 45716U 20035BM  21312.54369881  .00077471  00000-0  65904-3 0  9999","LAUNCH_DATE":"2020-06-04","ELEMENT_SET_NO":"999","SEMIMAJOR_AXIS":"6740.115","REF_FRAME":"TEME","MEAN_MOTION":"15.68923715","ARG_OF_PERICENTER":"26.5965","REV_AT_EPOCH":"8276","MEAN_MOTION_DDOT":"0.0000000000000","CENTER_NAME":"EARTH","GP_ID":"189270461","MEAN_ELEMENT_THEORY":"SGP4","OBJECT_ID":"2020-035BM","RA_OF_ASC_NODE":"149.9311","RCS_SIZE":"LARGE","TLE_LINE2":"2 45716  52.9978 149.9311 0004251  26.5965 333.5268 15.68923715 82768","PERIOD":"91.783","OBJECT_NAME":"STARLINK-1439","APOAPSIS":"364.845","INCLINATION":"52.9978","EPHEMERIS_TYPE":"0","TIME_SYSTEM":"UTC","NORAD_CAT_ID":"45716","EPOCH":"2021-11-08T13:02:55.577184","PERIAPSIS":"359.115","COUNTRY_CODE":"US"},{"PERIOD":"95.593","OBJECT_NAME":"STARLINK-1461","TLE_LINE2":"2 45730  53.0526 138.0304 0001494  89.8826 270.2334 15.06381820 77773","RCS_SIZE":"LARGE","RA_OF_ASC_NODE":"138.0304","COUNTRY_CODE":"US","PERIAPSIS":"546.235","EPOCH":"2021-11-08T18:59:07.355040","TIME_SYSTEM":"UTC","NORAD_CAT_ID":"45730","APOAPSIS":"548.304","EPHEMERIS_TYPE":"0","INCLINATION":"53.0526","REF_FRAME":"TEME","SEMIMAJOR_AXIS":"6925.404","OBJECT_ID":"2020-038A","MEAN_MOTION_DDOT":"0.0000000000000","CENTER_NAME":"EARTH","GP_ID":"189301199","MEAN_ELEMENT_THEORY":"SGP4","ARG_OF_PERICENTER":"89.8826","MEAN_MOTION":"15.06381820","REV_AT_EPOCH":"7777","MEAN_ANOMALY":"270.2334","CLASSIFICATION_TYPE":"U","ELEMENT_SET_NO":"999","LAUNCH_DATE":"2020-06-13","TLE_LINE1":"1 45730U 20038A   21312.79105735  .00001107  00000-0  93245-4 0  9994","DECAY_DATE":null,"OBJECT_TYPE":"PAYLOAD","SITE":"AFETR","BSTAR":"0.00009324500000","ECCENTRICITY":"0.00014940","FILE":"3209620","MEAN_MOTION_DOT":"0.00001107"}];
